{
  "type": "FeatureCollection",
  "metadata": {
    "year": 1964,
    "month": null,
    "datasets_referenced": [],
    "total_features": 4,
    "territories_count": 0,
    "facilities_count": 2,
    "flows_count": 0,
    "events_count": 2,
    "anachronistic_features_count": 0,
    "epistemological_warning": null
  },
  "coverage": {
    "year": 1964,
    "total_known_regions": 22,
    "regions_with_coverage": 0,
    "evidence_density_index": 0.0,
    "coverage_status": "lacunar"
  },
  "features": [
    {
      "type": "Feature",
      "id": "facility_1",
      "geometry": {
        "type": "Point",
        "coordinates": [
          -44.1925,
          -23.1856
        ]
      },
      "properties": {
        "feature_id": "facility_1",
        "layer": "facilities",
        "facility_id": 1,
        "name": "Instituto Penal Cândido Mendes (Colônia Penal de Dois Rios)",
        "facility_type": "presidio",
        "opened_at": "1903-01-01",
        "closed_at": "1994-04-03",
        "capacity": 1200,
        "is_operational": true,
        "notes": "Colônia correcional e presídio de segurança máxima da Ilha Grande. Berço da convivência entre presos políticos e comuns sob a LSN (1969-1979) e da gênese da Falange Vermelha. Desativado e implodido em abril de 1994.",
        "source_citation": "AMORIM, Carlos. Comando Vermelho: A história secreta do crime organizado. Rio de Janeiro: Editora Record, 1993."
      }
    },
    {
      "type": "Feature",
      "id": "facility_3",
      "geometry": {
        "type": "Point",
        "coordinates": [
          -43.193,
          -22.911
        ]
      },
      "properties": {
        "feature_id": "facility_3",
        "layer": "facilities",
        "facility_id": 3,
        "name": "Complexo Penitenciário da Rua Frei Caneca (Hélio Gomes / Milton Dias Moreira)",
        "facility_type": "complexo_penitenciario",
        "opened_at": "1928-01-01",
        "closed_at": "2006-03-25",
        "capacity": 2500,
        "is_operational": true,
        "notes": "Conjunto prisional histórico localizado na região central/Estácio. Cenário de rebeliões e transferências fundamentais na década de 1980. Implodido em 2006 para moradia popular.",
        "source_citation": "AMORIM, Carlos. Comando Vermelho: A história secreta do crime organizado. Rio de Janeiro: Editora Record, 1993."
      }
    },
    {
      "type": "Feature",
      "id": "event_72",
      "geometry": {
        "type": "Point",
        "coordinates": [
          -43.1824,
          -22.9035
        ]
      },
      "properties": {
        "feature_id": "event_72",
        "layer": "events",
        "event_id": 72,
        "title": "Confronto com 'Cara de Cavalo' e Morte de Milton Le Cocq",
        "event_type": "confronto_policial",
        "date_display": "27 de agosto de 1964",
        "date_start": "1964-08-27",
        "confidence_level": "provavel",
        "coordinate_source": "Instituto Pereira Passos (IPP) / Data.Rio - Centroide de Bairro",
        "buffer_meters": null,
        "source_count": 1,
        "primary_source": "ESCOLA DA MAGISTRATURA DO ESTADO DO RIO DE JANEIRO. Do 'esquadrão da morte' ao 'urbanismo miliciano': continuidades históricas da violência clandestina no Rio de Janeiro. Revista da EMERJ, v. 23, n. 3, 2021."
      }
    },
    {
      "type": "Feature",
      "id": "event_113",
      "geometry": {
        "type": "Point",
        "coordinates": [
          -42.0186,
          -22.8808
        ]
      },
      "properties": {
        "feature_id": "event_113",
        "layer": "events",
        "event_id": 113,
        "title": "Operação 'Cara de Cavalo': Cerco e Execução Sumária em Cabo Frio",
        "event_type": "confronto_letal",
        "date_display": "3 de outubro de 1964",
        "date_start": "1964-10-03",
        "confidence_level": "conflitante",
        "coordinate_source": "IBGE Malha Municipal",
        "buffer_meters": null,
        "source_count": 2,
        "primary_source": "JORNAL DO BRASIL. Cara de Cavalo assassinado com 52 tiros em Cabo Frio. Ano LXXIV, número 235, página 10, 4 de outubro de 1964."
      }
    }
  ]
}