{
  "type": "FeatureCollection",
  "metadata": {
    "year": 2026,
    "month": null,
    "datasets_referenced": [
      "Malha Vetorial de Bairros Oficiais do Município do Rio de Janeiro"
    ],
    "total_features": 6,
    "territories_count": 3,
    "facilities_count": 2,
    "flows_count": 0,
    "events_count": 1,
    "anachronistic_features_count": 3,
    "epistemological_warning": "Atenção historiográfica: 3 polígonos contemporâneos estão sendo exibidos para o ano de 2026. Suas fronteiras são ilustrativas e sinalizadas cartograficamente com padrão hachurado cinza."
  },
  "coverage": {
    "year": 2026,
    "total_known_regions": 22,
    "regions_with_coverage": 3,
    "evidence_density_index": 0.136,
    "coverage_status": "lacunar"
  },
  "features": [
    {
      "type": "Feature",
      "id": "territory_2",
      "geometry": {
        "type": "Polygon",
        "coordinates": [
          [
            [
              -43.266881475031894,
              -22.856670705052608
            ],
            [
              -43.267410409241826,
              -22.85771545085767
            ],
            [
              -43.26866306439615,
              -22.856762435506308
            ],
            [
              -43.26928116742837,
              -22.856392308215604
            ],
            [
              -43.26939232154978,
              -22.85632542561414
            ],
            [
              -43.26948011573042,
              -22.856279511053994
            ],
            [
              -43.26951796812233,
              -22.856199006616922
            ],
            [
              -43.269066507771136,
              -22.85556817744394
            ],
            [
              -43.26935123503074,
              -22.855353092391294
            ],
            [
              -43.27049190953136,
              -22.85662392584599
            ],
            [
              -43.271578093870545,
              -22.855701950867463
            ],
            [
              -43.270979226096316,
              -22.85509923474666
            ],
            [
              -43.27141491412057,
              -22.854797374337938
            ],
            [
              -43.27208018948616,
              -22.8542325043019
            ],
            [
              -43.27270552746379,
              -22.85470699467675
            ],
            [
              -43.272758663627705,
              -22.854666030107705
            ],
            [
              -43.27324732850148,
              -22.85504511447938
            ],
            [
              -43.27333789357742,
              -22.85509594684172
            ],
            [
              -43.27339476457711,
              -22.85508337997655
            ],
            [
              -43.27436184103244,
              -22.85429284176473
            ],
            [
              -43.274398033007,
              -22.854335860195313
            ],
            [
              -43.27520539954284,
              -22.853714358216095
            ],
            [
              -43.27527540019949,
              -22.853703647883048
            ],
            [
              -43.27533138042901,
              -22.853730804966624
            ],
            [
              -43.275377396093205,
              -22.853752254079755
            ],
            [
              -43.275456033288826,
              -22.853767556384174
            ],
            [
              -43.27550055305758,
              -22.853768399172125
            ],
            [
              -43.27553572167324,
              -22.853769053014513
            ],
            [
              -43.27562501085044,
              -22.853774354436492
            ],
            [
              -43.27572174357752,
              -22.853776575705247
            ],
            [
              -43.275785736734015,
              -22.853778622797233
            ],
            [
              -43.27589117867183,
              -22.85378573003759
            ],
            [
              -43.27593051860408,
              -22.853787869389468
            ],
            [
              -43.27596955598765,
              -22.853790819123383
            ],
            [
              -43.276008455426435,
              -22.853789254693343
            ],
            [
              -43.27604667093124,
              -22.853780187331402
            ],
            [
              -43.276085250319085,
              -22.853773017647907
            ],
            [
              -43.27612460144388,
              -22.85377434701569
            ],
            [
              -43.27619685391129,
              -22.853801501271352
            ],
            [
              -43.2762307299359,
              -22.85381965788325
            ],
            [
              -43.27626400898481,
              -22.85383871470806
            ],
            [
              -43.27632063685733,
              -22.853876352322356
            ],
            [
              -43.276325534891015,
              -22.853851119306285
            ],
            [
              -43.276329779405955,
              -22.853823619720174
            ],
            [
              -43.2763432892917,
              -22.8537877352099
            ],
            [
              -43.27635871818899,
              -22.85375421676676
            ],
            [
              -43.27638517528912,
              -22.85372714109574
            ],
            [
              -43.27641345558911,
              -22.85370207012361
            ],
            [
              -43.27644490744435,
              -22.8536806466958
            ],
            [
              -43.27647348537676,
              -22.85365530801325
            ],
            [
              -43.276484739537814,
              -22.853620572149534
            ],
            [
              -43.27650713741601,
              -22.853590922980903
            ],
            [
              -43.276536191396396,
              -22.85356631280345
            ],
            [
              -43.27657184454103,
              -22.85355179821154
            ],
            [
              -43.276650496268424,
              -22.853550572924874
            ],
            [
              -43.276727592564164,
              -22.853564592707723
            ],
            [
              -43.27676679237555,
              -22.85356230797875
            ],
            [
              -43.276881991413276,
              -22.853576198447303
            ],
            [
              -43.27692038743437,
              -22.853583566967476
            ],
            [
              -43.276993446753046,
              -22.85360856131985
            ],
            [
              -43.277027006646705,
              -22.853628611701343
            ],
            [
              -43.27705948002901,
              -22.853649824309002
            ],
            [
              -43.27711387210981,
              -22.85370243027976
            ],
            [
              -43.27714933344998,
              -22.853718437389645
            ],
            [
              -43.277260921820705,
              -22.85374041526628
            ],
            [
              -43.27733676009355,
              -22.853769142156747
            ],
            [
              -43.277373324906854,
              -22.853782722863578
            ],
            [
              -43.277410906130164,
              -22.85379297318994
            ],
            [
              -43.27748355249394,
              -22.853788973267246
            ],
            [
              -43.277541375229376,
              -22.853739478527405
            ],
            [
              -43.27757731623061,
              -22.85372523774522
            ],
            [
              -43.277688813925565,
              -22.853669279022068
            ],
            [
              -43.2777868144794,
              -22.853609473345106
            ],
            [
              -43.27781276341734,
              -22.85359169268467
            ],
            [
              -43.2778846214053,
              -22.85356510627523
            ],
            [
              -43.27796557482006,
              -22.853528144398094
            ],
            [
              -43.277989596189805,
              -22.85351648285163
            ],
            [
              -43.27802486986211,
              -22.853501061647474
            ],
            [
              -43.27807170277795,
              -22.853480797700353
            ],
            [
              -43.278133706641654,
              -22.853455188234182
            ],
            [
              -43.27817042352536,
              -22.85344122753118
            ],
            [
              -43.27824754443644,
              -22.8534222846242
            ],
            [
              -43.27829849722785,
              -22.853407663341585
            ],
            [
              -43.278321897904725,
              -22.85339870425083
            ],
            [
              -43.278414255118,
              -22.853330619126428
            ],
            [
              -43.27844474807502,
              -22.853308010007883
            ],
            [
              -43.27847755104588,
              -22.85328759415504
            ],
            [
              -43.278508812348406,
              -22.85326571760096
            ],
            [
              -43.278546277888616,
              -22.853254202303855
            ],
            [
              -43.278582216395634,
              -22.853240141869907
            ],
            [
              -43.27866102569397,
              -22.853234130986444
            ],
            [
              -43.2787002138778,
              -22.85323283903063
            ],
            [
              -43.27877858229726,
              -22.853230886253236
            ],
            [
              -43.27881774318089,
              -22.853231762255746
            ],
            [
              -43.27885537967211,
              -22.853222145190113
            ],
            [
              -43.27888663945269,
              -22.85320053856068
            ],
            [
              -43.2789163668308,
              -22.85317665766416
            ],
            [
              -43.27894513953675,
              -22.85315105240058
            ],
            [
              -43.278976222339864,
              -22.853128175920663
            ],
            [
              -43.27904545626645,
              -22.853093345310022
            ],
            [
              -43.27908412593759,
              -22.853086719507814
            ],
            [
              -43.27912283781562,
              -22.853092375068687
            ],
            [
              -43.279154428862384,
              -22.85311403106174
            ],
            [
              -43.27922995974365,
              -22.853128483338512
            ],
            [
              -43.27928249751549,
              -22.85311171148783
            ],
            [
              -43.27930445448447,
              -22.85310905996693
            ],
            [
              -43.27935871039543,
              -22.85312617288455
            ],
            [
              -43.279375332965074,
              -22.853137099206148
            ],
            [
              -43.2793978583069,
              -22.85316678209805
            ],
            [
              -43.279423627381,
              -22.853194153869474
            ],
            [
              -43.27944910386407,
              -22.85322170218564
            ],
            [
              -43.279485627226116,
              -22.85325406592359
            ],
            [
              -43.279559059606775,
              -22.853280416855267
            ],
            [
              -43.27958355384707,
              -22.853285287347955
            ],
            [
              -43.27969690058988,
              -22.85328362286199
            ],
            [
              -43.27974011067558,
              -22.85328020674764
            ],
            [
              -43.279779148191615,
              -22.853275480308596
            ],
            [
              -43.27981691200844,
              -22.853286636020734
            ],
            [
              -43.2798725677133,
              -22.853324083092055
            ],
            [
              -43.27991081779877,
              -22.853350956644256
            ],
            [
              -43.27997548110415,
              -22.853392744595244
            ],
            [
              -43.28005020553513,
              -22.8534093560609
            ],
            [
              -43.280089231414074,
              -22.853413300749775
            ],
            [
              -43.28012782619812,
              -22.853420220015284
            ],
            [
              -43.28016633183715,
              -22.853426867385622
            ],
            [
              -43.28022358020702,
              -22.85341511395085
            ],
            [
              -43.28025484751459,
              -22.85340064142031
            ],
            [
              -43.280301431312736,
              -22.853400151454736
            ],
            [
              -43.28034787085778,
              -22.853411127167156
            ],
            [
              -43.280373179787944,
              -22.85341320861704
            ],
            [
              -43.28040456545756,
              -22.853420230528496
            ],
            [
              -43.2804264696334,
              -22.853429678590235
            ],
            [
              -43.28045194101414,
              -22.85345749762477
            ],
            [
              -43.280481444665625,
              -22.853482289769985
            ],
            [
              -43.2805089898518,
              -22.853508233843332
            ],
            [
              -43.280527113420995,
              -22.853531457191725
            ],
            [
              -43.28056072543075,
              -22.85356297737598
            ],
            [
              -43.280593513257585,
              -22.853582477745967
            ],
            [
              -43.28066642841735,
              -22.853611169689202
            ],
            [
              -43.28070450757924,
              -22.853620432147025
            ],
            [
              -43.280738980815514,
              -22.853637871818304
            ],
            [
              -43.28076479025483,
              -22.853654316612076
            ],
            [
              -43.28079090717271,
              -22.85366173306626
            ],
            [
              -43.28084923740886,
              -22.85366507155394
            ],
            [
              -43.28087321615676,
              -22.85367987011468
            ],
            [
              -43.28091887866014,
              -22.85370592134244
            ],
            [
              -43.28100122468888,
              -22.853736612379546
            ],
            [
              -43.28187398744247,
              -22.85367749435997
            ],
            [
              -43.28152139310385,
              -22.855479028223776
            ],
            [
              -43.282720984791766,
              -22.85573860799193
            ],
            [
              -43.283070673809135,
              -22.85607534653601
            ],
            [
              -43.28322327188111,
              -22.856215163642993
            ],
            [
              -43.28339005071455,
              -22.856498091440752
            ],
            [
              -43.28351499720635,
              -22.856721415441097
            ],
            [
              -43.28366985778435,
              -22.85689819328949
            ],
            [
              -43.283997905765425,
              -22.85704974658022
            ],
            [
              -43.284210672762335,
              -22.857061882780425
            ],
            [
              -43.284312070386534,
              -22.857057557693203
            ],
            [
              -43.28443430505868,
              -22.85705445239556
            ],
            [
              -43.28459313071367,
              -22.85712515798738
            ],
            [
              -43.284730372549554,
              -22.857215410836126
            ],
            [
              -43.284974255995465,
              -22.857287124184968
            ],
            [
              -43.28517553462953,
              -22.857368222447366
            ],
            [
              -43.285323397277686,
              -22.857458589277364
            ],
            [
              -43.28556713101773,
              -22.85754998811214
            ],
            [
              -43.28574732055426,
              -22.857611171376913
            ],
            [
              -43.285880032984885,
              -22.857588579304927
            ],
            [
              -43.284290618032045,
              -22.86037270383162
            ],
            [
              -43.28459695189216,
              -22.860484737401194
            ],
            [
              -43.28494596546922,
              -22.860705781147587
            ],
            [
              -43.285177667359235,
              -22.860925558857055
            ],
            [
              -43.285321824297675,
              -22.86111730045513
            ],
            [
              -43.28539561426717,
              -22.861255363315003
            ],
            [
              -43.285458511772646,
              -22.861539246773365
            ],
            [
              -43.2855114444861,
              -22.86208148321862
            ],
            [
              -43.28555900420244,
              -22.86253145585258
            ],
            [
              -43.285605618945326,
              -22.863049061388875
            ],
            [
              -43.28559849226389,
              -22.863088990856408
            ],
            [
              -43.28518765200704,
              -22.863010691172974
            ],
            [
              -43.28512612792296,
              -22.86314539905119
            ],
            [
              -43.2851792299483,
              -22.863145971470843
            ],
            [
              -43.285623625139856,
              -22.863206209154704
            ],
            [
              -43.285653586664665,
              -22.863458943603764
            ],
            [
              -43.28568903543323,
              -22.86381016975679
            ],
            [
              -43.2856997983131,
              -22.864016549208444
            ],
            [
              -43.28573547934465,
              -22.86434935690098
            ],
            [
              -43.28581715869756,
              -22.86524897919441
            ],
            [
              -43.284250506108684,
              -22.865429050549597
            ],
            [
              -43.28324017448452,
              -22.865479739490862
            ],
            [
              -43.28179113783011,
              -22.865544107466075
            ],
            [
              -43.28136665224366,
              -22.86549644510848
            ],
            [
              -43.281339818730906,
              -22.865514668214388
            ],
            [
              -43.28125879966806,
              -22.86561836793522
            ],
            [
              -43.280807135366096,
              -22.866142961258213
            ],
            [
              -43.2805510292623,
              -22.866429537974565
            ],
            [
              -43.280251895336576,
              -22.866186175854804
            ],
            [
              -43.28002180821765,
              -22.865992869473455
            ],
            [
              -43.27980443098885,
              -22.86584277595589
            ],
            [
              -43.28027752726864,
              -22.86731611085784
            ],
            [
              -43.27977129933959,
              -22.86742144485547
            ],
            [
              -43.27958474296477,
              -22.867462502840755
            ],
            [
              -43.27944491921538,
              -22.867491784319856
            ],
            [
              -43.27930492060164,
              -22.8675272064872
            ],
            [
              -43.27882544531053,
              -22.867620454695214
            ],
            [
              -43.27813930215063,
              -22.867773143282424
            ],
            [
              -43.277819472935825,
              -22.86784969203579
            ],
            [
              -43.27764965610839,
              -22.867884789844183
            ],
            [
              -43.27719538430064,
              -22.868089112953186
            ],
            [
              -43.27664080907448,
              -22.86834165478728
            ],
            [
              -43.27631341379745,
              -22.868492080950134
            ],
            [
              -43.2760127602285,
              -22.86862419387186
            ],
            [
              -43.2759804654685,
              -22.86854997250698
            ],
            [
              -43.27588041455757,
              -22.868585822746667
            ],
            [
              -43.276054965378066,
              -22.868963213142145
            ],
            [
              -43.2756941886769,
              -22.86912555876886
            ],
            [
              -43.2756279092359,
              -22.86911869930841
            ],
            [
              -43.27535190709763,
              -22.868841894378445
            ],
            [
              -43.275268540481704,
              -22.86876811246804
            ],
            [
              -43.27515832182317,
              -22.868683202458175
            ],
            [
              -43.2748421998739,
              -22.868396299673407
            ],
            [
              -43.27450539012809,
              -22.868096347365068
            ],
            [
              -43.274449098755525,
              -22.868147302085355
            ],
            [
              -43.27432520782913,
              -22.86804932928787
            ],
            [
              -43.27445900390359,
              -22.86791866144264
            ],
            [
              -43.275185223761895,
              -22.867108444316557
            ],
            [
              -43.27545294184446,
              -22.86682155036171
            ],
            [
              -43.2756784048858,
              -22.866585583554663
            ],
            [
              -43.27592526905458,
              -22.866298462617245
            ],
            [
              -43.276137038628185,
              -22.86604302088602
            ],
            [
              -43.27602699981447,
              -22.865951701669697
            ],
            [
              -43.27590302863208,
              -22.865860141066857
            ],
            [
              -43.27575161064591,
              -22.865742545294598
            ],
            [
              -43.27563471785912,
              -22.86563823669393
            ],
            [
              -43.275684802906326,
              -22.865522825116827
            ],
            [
              -43.275689030337716,
              -22.86518792133619
            ],
            [
              -43.275659463718185,
              -22.864781759117783
            ],
            [
              -43.27587778522091,
              -22.86455546755671
            ],
            [
              -43.27611048535871,
              -22.864293839810454
            ],
            [
              -43.27630766705095,
              -22.864089895301035
            ],
            [
              -43.276639167413656,
              -22.86371338262861
            ],
            [
              -43.27687184690763,
              -22.86344543186066
            ],
            [
              -43.27693529511387,
              -22.86337522876736
            ],
            [
              -43.27642524989021,
              -22.863034752768186
            ],
            [
              -43.27641172320099,
              -22.863002366506052
            ],
            [
              -43.27655287739749,
              -22.86283646603575
            ],
            [
              -43.27645627012078,
              -22.862777442111497
            ],
            [
              -43.27633590173296,
              -22.862956481653892
            ],
            [
              -43.275797993920534,
              -22.862615704597964
            ],
            [
              -43.27550852096035,
              -22.862966839679657
            ],
            [
              -43.27531762441758,
              -22.863228831358317
            ],
            [
              -43.27468956550349,
              -22.863969313414124
            ],
            [
              -43.274499378769676,
              -22.86416691986644
            ],
            [
              -43.27404131498604,
              -22.864664418995414
            ],
            [
              -43.27362444639739,
              -22.865194516669526
            ],
            [
              -43.27347646439633,
              -22.865360431293297
            ],
            [
              -43.27317981901981,
              -22.86573081021448
            ],
            [
              -43.27294051930427,
              -22.865966535523288
            ],
            [
              -43.2727355804259,
              -22.866228368374053
            ],
            [
              -43.272625655449154,
              -22.866397945482227
            ],
            [
              -43.27251895378887,
              -22.866589954576405
            ],
            [
              -43.272433833735484,
              -22.866724312913007
            ],
            [
              -43.27234220395573,
              -22.86682644573206
            ],
            [
              -43.27214460565242,
              -22.86706261987351
            ],
            [
              -43.27208107215883,
              -22.867139232595072
            ],
            [
              -43.272024619119385,
              -22.86720300919296
            ],
            [
              -43.27193525440472,
              -22.867187678603738
            ],
            [
              -43.271756665207334,
              -22.8671382376326
            ],
            [
              -43.2716360093193,
              -22.867131326674876
            ],
            [
              -43.27143878007556,
              -22.867114735206314
            ],
            [
              -43.27101004833819,
              -22.867110075453816
            ],
            [
              -43.27069916831696,
              -22.867110668480333
            ],
            [
              -43.27021464951897,
              -22.867109374470374
            ],
            [
              -43.26997453025959,
              -22.86711714829243
            ],
            [
              -43.26986448229769,
              -22.867172935054747
            ],
            [
              -43.26973292697666,
              -22.867310848697382
            ],
            [
              -43.269469300183,
              -22.867612044460735
            ],
            [
              -43.26895003201645,
              -22.868138482882095
            ],
            [
              -43.268134289048554,
              -22.86885802057416
            ],
            [
              -43.26794879116565,
              -22.86893827206723
            ],
            [
              -43.26766911626614,
              -22.868890883651254
            ],
            [
              -43.26728091608327,
              -22.868779010949083
            ],
            [
              -43.266893841801256,
              -22.8685784636801
            ],
            [
              -43.265716621841804,
              -22.8678942000391
            ],
            [
              -43.265448919203564,
              -22.867441552581294
            ],
            [
              -43.2653619047281,
              -22.867294937738286
            ],
            [
              -43.26486677624663,
              -22.86645663514577
            ],
            [
              -43.26467999410485,
              -22.866093551544253
            ],
            [
              -43.26454586338782,
              -22.865889349256527
            ],
            [
              -43.26426191629883,
              -22.8659179505853
            ],
            [
              -43.263174066763746,
              -22.865994755699646
            ],
            [
              -43.26244102551296,
              -22.8661260942933
            ],
            [
              -43.261134378192104,
              -22.866219461317023
            ],
            [
              -43.26009910759331,
              -22.866467863577594
            ],
            [
              -43.25984679651513,
              -22.86646103968619
            ],
            [
              -43.258247108461966,
              -22.866707316763666
            ],
            [
              -43.25799950806461,
              -22.866292897286456
            ],
            [
              -43.25807402886,
              -22.865805966232834
            ],
            [
              -43.25740717002069,
              -22.865576959312754
            ],
            [
              -43.257690740817296,
              -22.864775613022623
            ],
            [
              -43.25799732880226,
              -22.863781351155986
            ],
            [
              -43.25819539298679,
              -22.86325784474168
            ],
            [
              -43.25860370484319,
              -22.8633953348815
            ],
            [
              -43.25889620058102,
              -22.863506182979798
            ],
            [
              -43.259222976319826,
              -22.86361108421795
            ],
            [
              -43.25930110170293,
              -22.863383913733887
            ],
            [
              -43.25944271017648,
              -22.86299280952271
            ],
            [
              -43.2595639530674,
              -22.862601391111106
            ],
            [
              -43.25969135247612,
              -22.862254380517534
            ],
            [
              -43.25980877899147,
              -22.86189461864322
            ],
            [
              -43.26155257800469,
              -22.862357090205908
            ],
            [
              -43.261729975509915,
              -22.862384404881972
            ],
            [
              -43.261749955341564,
              -22.862422550251086
            ],
            [
              -43.26184313773236,
              -22.8624591501766
            ],
            [
              -43.26191355319115,
              -22.862462358706242
            ],
            [
              -43.26224175968667,
              -22.862446979765316
            ],
            [
              -43.26241883692744,
              -22.862499576101612
            ],
            [
              -43.262574954409516,
              -22.862583641040683
            ],
            [
              -43.26269047099229,
              -22.862641885321985
            ],
            [
              -43.26298586484223,
              -22.862524732822568
            ],
            [
              -43.263474230687784,
              -22.862283075144592
            ],
            [
              -43.26382476919219,
              -22.86212850192832
            ],
            [
              -43.26403065869384,
              -22.862061122130058
            ],
            [
              -43.26467289278036,
              -22.86181156607381
            ],
            [
              -43.26516037135108,
              -22.861639519885607
            ],
            [
              -43.26535197267429,
              -22.86162264468779
            ],
            [
              -43.26565209404262,
              -22.861670257524114
            ],
            [
              -43.266238293504465,
              -22.861797026231308
            ],
            [
              -43.266851856330774,
              -22.861917678235944
            ],
            [
              -43.26712453791458,
              -22.861977633292774
            ],
            [
              -43.26772662886463,
              -22.861927205844466
            ],
            [
              -43.26768817782709,
              -22.861724139097817
            ],
            [
              -43.267651510903676,
              -22.86138797740805
            ],
            [
              -43.26757244751486,
              -22.860614358322206
            ],
            [
              -43.267449315003475,
              -22.860080927525445
            ],
            [
              -43.2673312911902,
              -22.85969014799518
            ],
            [
              -43.26624175095252,
              -22.859474094572963
            ],
            [
              -43.26618819753762,
              -22.85934789214095
            ],
            [
              -43.26614280377559,
              -22.859300529930525
            ],
            [
              -43.26606524580278,
              -22.8592613927308
            ],
            [
              -43.26587270477565,
              -22.859229493852535
            ],
            [
              -43.26552382860473,
              -22.85920013674976
            ],
            [
              -43.26507855003471,
              -22.859165477860532
            ],
            [
              -43.264633205528376,
              -22.859143553907703
            ],
            [
              -43.26446006108597,
              -22.859118998249194
            ],
            [
              -43.26446634490911,
              -22.85906939707285
            ],
            [
              -43.26359900688509,
              -22.858629801745245
            ],
            [
              -43.262205501604384,
              -22.85800357127913
            ],
            [
              -43.26254914300061,
              -22.85735584934289
            ],
            [
              -43.26317525081704,
              -22.856181016178294
            ],
            [
              -43.26590910994128,
              -22.85744352607883
            ],
            [
              -43.266091947206256,
              -22.857517943957408
            ],
            [
              -43.26660938064485,
              -22.85663450813651
            ],
            [
              -43.266765363019125,
              -22.85672886323972
            ],
            [
              -43.266881475031894,
              -22.856670705052608
            ]
          ]
        ]
      },
      "properties": {
        "feature_id": "territory_2",
        "layer": "territories",
        "relation_id": 2,
        "region_id": 78,
        "region_name": "Complexo do Alemão",
        "relation_type": "controle",
        "organization_id": 44,
        "organization_name": "Comando Vermelho (Falange Vermelha / CVRL)",
        "organization_acronym": "CV",
        "color_hex": "#DC2626",
        "evidence_strength": "documentada_primaria",
        "independent_root_count": 3,
        "is_contested": false,
        "is_anachronistic": true,
        "anachronism_note": "Malha de 2022/2024 aplicada como referência contemporânea — fronteira ilustrativa, não histórica para períodos anteriores.",
        "dataset_name": "Malha Vetorial de Bairros Oficiais do Município do Rio de Janeiro",
        "dataset_provider": "Instituto Pereira Passos (IPP) / PCRJ / Data.Rio",
        "notes": "Bastião histórico e quartel-general de comando territorial do Comando Vermelho na Zona Norte."
      }
    },
    {
      "type": "Feature",
      "id": "territory_3",
      "geometry": {
        "type": "Polygon",
        "coordinates": [
          [
            [
              -43.3614465687805,
              -22.941516404913994
            ],
            [
              -43.3614852040367,
              -22.94150632983369
            ],
            [
              -43.361991838091406,
              -22.941427123615608
            ],
            [
              -43.362122806382395,
              -22.941912170265255
            ],
            [
              -43.362306345517496,
              -22.942501437215427
            ],
            [
              -43.36275409141724,
              -22.943872710255107
            ],
            [
              -43.362826373197755,
              -22.944073129952038
            ],
            [
              -43.362924067247654,
              -22.944219986621086
            ],
            [
              -43.363113291881625,
              -22.944337175506913
            ],
            [
              -43.36339312961497,
              -22.944508940865113
            ],
            [
              -43.3639856747633,
              -22.94486825204333
            ],
            [
              -43.36419175827843,
              -22.944970168876004
            ],
            [
              -43.36429102384147,
              -22.944986544955036
            ],
            [
              -43.364824561331645,
              -22.944738726495686
            ],
            [
              -43.365233601642466,
              -22.944504886516853
            ],
            [
              -43.36551096328321,
              -22.944192925904773
            ],
            [
              -43.36571437922194,
              -22.94381879086578
            ],
            [
              -43.36589602464157,
              -22.94390112843995
            ],
            [
              -43.366056791109344,
              -22.94396058223206
            ],
            [
              -43.367359663402574,
              -22.944364493815538
            ],
            [
              -43.36739962722942,
              -22.944292565430587
            ],
            [
              -43.36752023973515,
              -22.94430952219728
            ],
            [
              -43.36753326542183,
              -22.944142221676014
            ],
            [
              -43.367570046054055,
              -22.9440024417267
            ],
            [
              -43.367635409983095,
              -22.943934838541246
            ],
            [
              -43.36772990462571,
              -22.943901583492032
            ],
            [
              -43.36794512584857,
              -22.94388420046723
            ],
            [
              -43.3681939680022,
              -22.943868336978188
            ],
            [
              -43.36852412255367,
              -22.943820887282104
            ],
            [
              -43.36878627971072,
              -22.943719275483037
            ],
            [
              -43.36900646784914,
              -22.943604497249414
            ],
            [
              -43.36934100670837,
              -22.943484124433468
            ],
            [
              -43.36946839019195,
              -22.94339981843904
            ],
            [
              -43.3695129491032,
              -22.943334982617124
            ],
            [
              -43.36953161975057,
              -22.94325795898006
            ],
            [
              -43.36953255773724,
              -22.943179668489716
            ],
            [
              -43.36947350106238,
              -22.942973247157685
            ],
            [
              -43.369235861250296,
              -22.942623926039023
            ],
            [
              -43.36892953060597,
              -22.94231923382392
            ],
            [
              -43.368727785628664,
              -22.942115679285557
            ],
            [
              -43.36846940735871,
              -22.94187776552229
            ],
            [
              -43.36901706511151,
              -22.941833454978067
            ],
            [
              -43.36983907848403,
              -22.9417267581064
            ],
            [
              -43.37032066194579,
              -22.941662528199515
            ],
            [
              -43.37046154909423,
              -22.94166397521921
            ],
            [
              -43.37056873652231,
              -22.941718900515045
            ],
            [
              -43.37062426531081,
              -22.94192673114826
            ],
            [
              -43.370662669225204,
              -22.94218053407752
            ],
            [
              -43.3712769452549,
              -22.942110077916904
            ],
            [
              -43.37144297109007,
              -22.942096429517065
            ],
            [
              -43.37130210102502,
              -22.94277826647354
            ],
            [
              -43.37100360456032,
              -22.944172653456057
            ],
            [
              -43.37089854594466,
              -22.944632243542067
            ],
            [
              -43.370888144981734,
              -22.944808783046966
            ],
            [
              -43.371273606764184,
              -22.946544156591205
            ],
            [
              -43.37139599643604,
              -22.946714292789302
            ],
            [
              -43.371560462627706,
              -22.946823449463295
            ],
            [
              -43.37169333929008,
              -22.946801784484773
            ],
            [
              -43.37177778201816,
              -22.94667983026556
            ],
            [
              -43.371839489245595,
              -22.94706437027202
            ],
            [
              -43.37203919275726,
              -22.947692174471605
            ],
            [
              -43.37232035740997,
              -22.948447519505237
            ],
            [
              -43.3721796506721,
              -22.94843072304
            ],
            [
              -43.371317444438695,
              -22.948429549183665
            ],
            [
              -43.3693361119968,
              -22.948416871129997
            ],
            [
              -43.36898802301816,
              -22.94840561527109
            ],
            [
              -43.36889713193263,
              -22.948381652709894
            ],
            [
              -43.36878483818749,
              -22.94830517905762
            ],
            [
              -43.36871645847556,
              -22.94823394513672
            ],
            [
              -43.36861811221802,
              -22.94814072784953
            ],
            [
              -43.36851156941795,
              -22.948039840216943
            ],
            [
              -43.36843670267396,
              -22.948062099104032
            ],
            [
              -43.36810210415682,
              -22.948649913755347
            ],
            [
              -43.36746026202166,
              -22.949633733054053
            ],
            [
              -43.36719053365152,
              -22.949999508298006
            ],
            [
              -43.36707289245674,
              -22.95013267937191
            ],
            [
              -43.36573217195695,
              -22.951316645354016
            ],
            [
              -43.3654051554932,
              -22.9516204183273
            ],
            [
              -43.36513294502891,
              -22.951502468475116
            ],
            [
              -43.36479507845887,
              -22.95133001609513
            ],
            [
              -43.36457525536575,
              -22.951688625426133
            ],
            [
              -43.36444973912336,
              -22.95178712379562
            ],
            [
              -43.36433305702975,
              -22.951832067669102
            ],
            [
              -43.364216472456924,
              -22.95187692395551
            ],
            [
              -43.364092063428664,
              -22.95188331803067
            ],
            [
              -43.36388476783343,
              -22.95188117983795
            ],
            [
              -43.36354086587585,
              -22.95186995571096
            ],
            [
              -43.3628359272317,
              -22.951885709765538
            ],
            [
              -43.36244620491274,
              -22.95188936557135
            ],
            [
              -43.362114508522154,
              -22.951901289591568
            ],
            [
              -43.36185628741093,
              -22.951998415368923
            ],
            [
              -43.361630569274816,
              -22.95214961039467
            ],
            [
              -43.36140466873014,
              -22.95232392142304
            ],
            [
              -43.36096971521007,
              -22.952641920212468
            ],
            [
              -43.360735338158534,
              -22.952823729468378
            ],
            [
              -43.36037571475722,
              -22.953081096649804
            ],
            [
              -43.36011661273501,
              -22.95325885631779
            ],
            [
              -43.35986713649068,
              -22.953317686805974
            ],
            [
              -43.3596347991382,
              -22.95333831189715
            ],
            [
              -43.359394444642675,
              -22.95332815043937
            ],
            [
              -43.35907949802812,
              -22.953317215990197
            ],
            [
              -43.35871417575374,
              -22.953359493491952
            ],
            [
              -43.35847252852387,
              -22.953464460369073
            ],
            [
              -43.35833936492616,
              -22.953509229974628
            ],
            [
              -43.35823171071575,
              -22.953492762182552
            ],
            [
              -43.35755506241191,
              -22.953232350204587
            ],
            [
              -43.35744286298337,
              -22.953592062104338
            ],
            [
              -43.357396211002026,
              -22.95366003586824
            ],
            [
              -43.35723597032904,
              -22.95372619733563
            ],
            [
              -43.35711660257036,
              -22.953791337085647
            ],
            [
              -43.357004875092514,
              -22.953708180041982
            ],
            [
              -43.356763994674886,
              -22.953660893038975
            ],
            [
              -43.355887635107806,
              -22.953569808415367
            ],
            [
              -43.355389228256826,
              -22.953505038861092
            ],
            [
              -43.35506161447685,
              -22.953307836573348
            ],
            [
              -43.354717637759755,
              -22.95312527637501
            ],
            [
              -43.354438021573735,
              -22.95295097099874
            ],
            [
              -43.35434528607586,
              -22.95289987924111
            ],
            [
              -43.35432864244278,
              -22.952892181106737
            ],
            [
              -43.35418994925363,
              -22.952829096208223
            ],
            [
              -43.35410287435674,
              -22.952809550155692
            ],
            [
              -43.35384265322274,
              -22.95275212504822
            ],
            [
              -43.35384233714276,
              -22.95275205493905
            ],
            [
              -43.35298703485765,
              -22.952726553189905
            ],
            [
              -43.35298277092542,
              -22.952514216252375
            ],
            [
              -43.35298277002493,
              -22.95251412954651
            ],
            [
              -43.353036748809764,
              -22.95230837494778
            ],
            [
              -43.353044146901595,
              -22.952279980994764
            ],
            [
              -43.35306612363043,
              -22.952187716657807
            ],
            [
              -43.35306630956884,
              -22.95218693741679
            ],
            [
              -43.35309882057511,
              -22.952051044966566
            ],
            [
              -43.35311981144416,
              -22.951963282210976
            ],
            [
              -43.353122953544116,
              -22.95195014148063
            ],
            [
              -43.35316610309943,
              -22.951769326044165
            ],
            [
              -43.35317612582696,
              -22.951690703343477
            ],
            [
              -43.353201873103224,
              -22.951487451478457
            ],
            [
              -43.353214586138265,
              -22.951360665173173
            ],
            [
              -43.35322964115629,
              -22.951209737424254
            ],
            [
              -43.35330996709534,
              -22.950406096140586
            ],
            [
              -43.353312214989415,
              -22.950383604565907
            ],
            [
              -43.353363392142946,
              -22.94987117225953
            ],
            [
              -43.35395475795864,
              -22.949741600211077
            ],
            [
              -43.35414303542695,
              -22.949700426871612
            ],
            [
              -43.35436712935018,
              -22.949651307435655
            ],
            [
              -43.354428007461586,
              -22.94963583060525
            ],
            [
              -43.35486436068569,
              -22.94952523549178
            ],
            [
              -43.35498631924687,
              -22.949494304283007
            ],
            [
              -43.355042226474616,
              -22.94948007520419
            ],
            [
              -43.35521510299363,
              -22.94943631424156
            ],
            [
              -43.355215325712756,
              -22.949436282233552
            ],
            [
              -43.355215852929085,
              -22.949436148624557
            ],
            [
              -43.35573070106223,
              -22.94936232871484
            ],
            [
              -43.356002413855386,
              -22.949822334302922
            ],
            [
              -43.35605792841594,
              -22.949922674910837
            ],
            [
              -43.35607511849658,
              -22.949953725196984
            ],
            [
              -43.35629329685555,
              -22.950347715950826
            ],
            [
              -43.35632461081731,
              -22.9504507813745
            ],
            [
              -43.356399903524945,
              -22.950698609058236
            ],
            [
              -43.356400850194625,
              -22.950697415048886
            ],
            [
              -43.35679805301535,
              -22.950195451392553
            ],
            [
              -43.35713116259848,
              -22.94968693822198
            ],
            [
              -43.35756003580234,
              -22.94899202543013
            ],
            [
              -43.35763099918925,
              -22.948913378531966
            ],
            [
              -43.35818617337978,
              -22.94871728493851
            ],
            [
              -43.358374113347345,
              -22.948625488319458
            ],
            [
              -43.35863390504005,
              -22.94839021314789
            ],
            [
              -43.35896746518304,
              -22.948166535944427
            ],
            [
              -43.35915558007728,
              -22.94806029158677
            ],
            [
              -43.35948284956175,
              -22.94803486786935
            ],
            [
              -43.359911162453365,
              -22.948032072079933
            ],
            [
              -43.35999720076208,
              -22.947996928269056
            ],
            [
              -43.36001819148659,
              -22.947550113243743
            ],
            [
              -43.3600599621064,
              -22.947312581385585
            ],
            [
              -43.360061351936906,
              -22.947197270073087
            ],
            [
              -43.36002479574305,
              -22.9470021856405
            ],
            [
              -43.35972621968178,
              -22.946580877057826
            ],
            [
              -43.359380161234704,
              -22.946224007396072
            ],
            [
              -43.359179313476396,
              -22.946092155924887
            ],
            [
              -43.35862885104642,
              -22.94589898071202
            ],
            [
              -43.35852821091747,
              -22.945851068986375
            ],
            [
              -43.35868194269817,
              -22.9453695934004
            ],
            [
              -43.35842608639049,
              -22.945287656534273
            ],
            [
              -43.35848968387671,
              -22.945172899545927
            ],
            [
              -43.35870699469983,
              -22.945232855452307
            ],
            [
              -43.35877761916342,
              -22.94519032802513
            ],
            [
              -43.35912589476236,
              -22.944069128465472
            ],
            [
              -43.35916004519463,
              -22.94388940522263
            ],
            [
              -43.35946686884843,
              -22.943884811622713
            ],
            [
              -43.35984045171985,
              -22.94384261651458
            ],
            [
              -43.36060400865124,
              -22.9437737446577
            ],
            [
              -43.36134288085002,
              -22.94368158618062
            ],
            [
              -43.36116526409745,
              -22.942803118144695
            ],
            [
              -43.3610774182882,
              -22.942340733298124
            ],
            [
              -43.360930926381734,
              -22.941744259212108
            ],
            [
              -43.3608954169963,
              -22.94160002977816
            ],
            [
              -43.3611192690879,
              -22.94160234215338
            ],
            [
              -43.3614465687805,
              -22.941516404913994
            ]
          ]
        ]
      },
      "properties": {
        "feature_id": "territory_3",
        "layer": "territories",
        "relation_id": 3,
        "region_id": 81,
        "region_name": "Cidade de Deus",
        "relation_type": "disputa",
        "organization_id": 44,
        "organization_name": "Comando Vermelho (Falange Vermelha / CVRL)",
        "organization_acronym": "CV",
        "color_hex": "#D97706",
        "evidence_strength": "documentada_secundaria",
        "independent_root_count": 2,
        "is_contested": true,
        "is_anachronistic": true,
        "anachronism_note": "Malha de 2022/2024 aplicada como referência contemporânea — fronteira ilustrativa, não histórica para períodos anteriores.",
        "dataset_name": "Malha Vetorial de Bairros Oficiais do Município do Rio de Janeiro",
        "dataset_provider": "Instituto Pereira Passos (IPP) / PCRJ / Data.Rio",
        "notes": "Território historicamente caracterizado por sucessivas disputas territoriais entre facções de tráfico e incursões de milícias vizinhas."
      }
    },
    {
      "type": "Feature",
      "id": "territory_4",
      "geometry": {
        "type": "Point",
        "coordinates": [
          -43.402,
          -22.889
        ]
      },
      "properties": {
        "feature_id": "territory_4",
        "layer": "territories",
        "relation_id": 4,
        "region_id": 76,
        "region_name": "Quartel do CFAP / Sulacap - Sede de Fundação do NuCOE",
        "relation_type": "presenca_estatal",
        "organization_id": 54,
        "organization_name": "Batalhão de Operações Policiais Especiais (BOPE / NuCOE)",
        "organization_acronym": "BOPE",
        "color_hex": "#1D4ED8",
        "evidence_strength": "documentada_primaria",
        "independent_root_count": 2,
        "is_contested": false,
        "is_anachronistic": true,
        "anachronism_note": "Malha de 2022/2024 aplicada como referência contemporânea — fronteira ilustrativa, não histórica para períodos anteriores.",
        "dataset_name": "Malha Vetorial de Bairros Oficiais do Município do Rio de Janeiro",
        "dataset_provider": "Instituto Pereira Passos (IPP) / PCRJ / Data.Rio",
        "notes": "Presença militar institucional oficial fundacional do NuCOE nas dependências do CFAP."
      }
    },
    {
      "type": "Feature",
      "id": "facility_2",
      "geometry": {
        "type": "Point",
        "coordinates": [
          -43.483,
          -22.855
        ]
      },
      "properties": {
        "feature_id": "facility_2",
        "layer": "facilities",
        "facility_id": 2,
        "name": "Penitenciária Laércio da Costa Pellegrino (Bangu 1)",
        "facility_type": "presidio_seguranca_maxima",
        "opened_at": "1988-03-01",
        "closed_at": null,
        "capacity": 48,
        "is_operational": true,
        "notes": "Primeiro presídio de segurança máxima construído no Complexo de Gericinó (Bangu), projetado para abrigar lideranças de facções criminosas em isolamento estrito celular.",
        "source_citation": "AMORIM, Carlos. Comando Vermelho: A história secreta do crime organizado. Rio de Janeiro: Editora Record, 1993."
      }
    },
    {
      "type": "Feature",
      "id": "facility_4",
      "geometry": {
        "type": "Point",
        "coordinates": [
          -43.402,
          -22.889
        ]
      },
      "properties": {
        "feature_id": "facility_4",
        "layer": "facilities",
        "facility_id": 4,
        "name": "Núcleo da Cia. de Operações Especiais — NuCOE / BOPE (Sede Fundacional)",
        "facility_type": "batalhao_pmerj",
        "opened_at": "1978-01-19",
        "closed_at": null,
        "capacity": null,
        "is_operational": true,
        "notes": "Sede fundacional do NuCOE nas instalações do Centro de Formação e Aperfeiçoamento de Praças (CFAP) em Jardim Sulacap, embrião do moderno BOPE.",
        "source_citation": "AMORIM, Carlos. Comando Vermelho: A história secreta do crime organizado. Rio de Janeiro: Editora Record, 1993."
      }
    },
    {
      "type": "Feature",
      "id": "event_101",
      "geometry": {
        "type": "Point",
        "coordinates": [
          -43.203,
          -22.915
        ]
      },
      "properties": {
        "feature_id": "event_101",
        "layer": "events",
        "event_id": 101,
        "title": "Primeira Turma do STF Condena Irmãos Brazão a 76 Anos de Prisão pelo Assassinato de Marielle Franco",
        "event_type": "decisao_judicial_historica",
        "date_display": "25 de fevereiro de 2026",
        "date_start": "2026-02-25",
        "confidence_level": "confirmado",
        "coordinate_source": "PMERJ Boletim nº 14/1978 / Logradouro Municipal Data.Rio",
        "buffer_meters": null,
        "source_count": 1,
        "primary_source": "SUPREMO TRIBUNAL FEDERAL. Acórdão na Ação Penal nº 2.434/RJ. Primeira Turma. Relator Min. Alexandre de Moraes. Julgado em 25/02/2026. Brasília: STF, 2026."
      }
    }
  ]
}