{
  "type": "FeatureCollection",
  "metadata": {
    "year": 1970,
    "month": null,
    "datasets_referenced": [],
    "total_features": 4,
    "territories_count": 0,
    "facilities_count": 2,
    "flows_count": 0,
    "events_count": 2,
    "anachronistic_features_count": 0,
    "epistemological_warning": null
  },
  "coverage": {
    "year": 1970,
    "total_known_regions": 22,
    "regions_with_coverage": 0,
    "evidence_density_index": 0.0,
    "coverage_status": "lacunar"
  },
  "features": [
    {
      "type": "Feature",
      "id": "facility_1",
      "geometry": {
        "type": "Point",
        "coordinates": [
          -44.1925,
          -23.1856
        ]
      },
      "properties": {
        "feature_id": "facility_1",
        "layer": "facilities",
        "facility_id": 1,
        "name": "Instituto Penal Cândido Mendes (Colônia Penal de Dois Rios)",
        "facility_type": "presidio",
        "opened_at": "1903-01-01",
        "closed_at": "1994-04-03",
        "capacity": 1200,
        "is_operational": true,
        "notes": "Colônia correcional e presídio de segurança máxima da Ilha Grande. Berço da convivência entre presos políticos e comuns sob a LSN (1969-1979) e da gênese da Falange Vermelha. Desativado e implodido em abril de 1994.",
        "source_citation": "AMORIM, Carlos. Comando Vermelho: A história secreta do crime organizado. Rio de Janeiro: Editora Record, 1993."
      }
    },
    {
      "type": "Feature",
      "id": "facility_3",
      "geometry": {
        "type": "Point",
        "coordinates": [
          -43.193,
          -22.911
        ]
      },
      "properties": {
        "feature_id": "facility_3",
        "layer": "facilities",
        "facility_id": 3,
        "name": "Complexo Penitenciário da Rua Frei Caneca (Hélio Gomes / Milton Dias Moreira)",
        "facility_type": "complexo_penitenciario",
        "opened_at": "1928-01-01",
        "closed_at": "2006-03-25",
        "capacity": 2500,
        "is_operational": true,
        "notes": "Conjunto prisional histórico localizado na região central/Estácio. Cenário de rebeliões e transferências fundamentais na década de 1980. Implodido em 2006 para moradia popular.",
        "source_citation": "AMORIM, Carlos. Comando Vermelho: A história secreta do crime organizado. Rio de Janeiro: Editora Record, 1993."
      }
    },
    {
      "type": "Feature",
      "id": "event_74",
      "geometry": {
        "type": "Point",
        "coordinates": [
          -44.1925,
          -23.1856
        ]
      },
      "properties": {
        "feature_id": "event_74",
        "layer": "events",
        "event_id": 74,
        "title": "Convivência Carcerária sob a Lei de Segurança Nacional na Ilha Grande",
        "event_type": "politica_penitenciaria",
        "date_display": "1970",
        "date_start": "1970-01-01",
        "confidence_level": "provavel",
        "coordinate_source": "Marco Histórico / INEPAC & IPHAN (Ruínas do IPMC em Dois Rios)",
        "buffer_meters": null,
        "source_count": 1,
        "primary_source": "GRINBERG, Keila et al. O encontro da militância com a vadiagem nas prisões da Ilha Grande: repressão e convivência prisional (1969-1979). Estudos Históricos / CPDOC-FGV, 2005."
      }
    },
    {
      "type": "Feature",
      "id": "event_115",
      "geometry": {
        "type": "Point",
        "coordinates": [
          -44.1925,
          -23.1856
        ]
      },
      "properties": {
        "feature_id": "event_115",
        "layer": "events",
        "event_id": 115,
        "title": "Segregação da Galeria B no IPMC e Gênese do Coletivo do 'Fundão'",
        "event_type": "organizacao_penitenciaria",
        "date_display": "1970–1971",
        "date_start": "1970-01-01",
        "confidence_level": "conflitante",
        "coordinate_source": "Marco Histórico / INEPAC & IPHAN (Ruínas do IPMC em Dois Rios)",
        "buffer_meters": null,
        "source_count": 2,
        "primary_source": "PEREIRA, Ana Carolina Huguenin. Entre o 'caldeirão do diabo' e o Comando Vermelho: memórias prisionais da Ilha Grande (Graciliano Ramos, Herondino Pereira Pinto e William da Silva Lima). Passagens: Revista Internacional de História Política e Cultura Jurídica, Rio de Janeiro, v. 18, n. 1, p. 25-42, 2026. DOI: 10.15175/y3q09b84."
      }
    }
  ]
}