{
  "type": "FeatureCollection",
  "metadata": {
    "year": 1985,
    "month": null,
    "datasets_referenced": [
      "Malha Vetorial de Bairros Oficiais do Município do Rio de Janeiro"
    ],
    "total_features": 8,
    "territories_count": 2,
    "facilities_count": 3,
    "flows_count": 1,
    "events_count": 2,
    "anachronistic_features_count": 2,
    "epistemological_warning": "Atenção historiográfica: 2 polígonos contemporâneos estão sendo exibidos para o ano de 1985. Suas fronteiras são ilustrativas e sinalizadas cartograficamente com padrão hachurado cinza."
  },
  "coverage": {
    "year": 1985,
    "total_known_regions": 22,
    "regions_with_coverage": 2,
    "evidence_density_index": 0.091,
    "coverage_status": "lacunar"
  },
  "features": [
    {
      "type": "Feature",
      "id": "territory_1",
      "geometry": {
        "type": "Point",
        "coordinates": [
          -44.1925,
          -23.1856
        ]
      },
      "properties": {
        "feature_id": "territory_1",
        "layer": "territories",
        "relation_id": 1,
        "region_id": 73,
        "region_name": "Ilha Grande - Instituto Penal Cândido Mendes",
        "relation_type": "controle",
        "organization_id": 44,
        "organization_name": "Comando Vermelho (Falange Vermelha / CVRL)",
        "organization_acronym": "CV",
        "color_hex": "#DC2626",
        "evidence_strength": "documentada_primaria",
        "independent_root_count": 2,
        "is_contested": false,
        "is_anachronistic": true,
        "anachronism_note": "Malha de 2022/2024 aplicada como referência contemporânea — fronteira ilustrativa, não histórica para períodos anteriores.",
        "dataset_name": "Malha Vetorial de Bairros Oficiais do Município do Rio de Janeiro",
        "dataset_provider": "Instituto Pereira Passos (IPP) / PCRJ / Data.Rio",
        "notes": "Hegemonia prisional consolidada no Cândido Mendes após a eliminação das lideranças da Falange Jacaré em 17/09/1979 até a implosão do presídio em 1994."
      }
    },
    {
      "type": "Feature",
      "id": "territory_4",
      "geometry": {
        "type": "Point",
        "coordinates": [
          -43.402,
          -22.889
        ]
      },
      "properties": {
        "feature_id": "territory_4",
        "layer": "territories",
        "relation_id": 4,
        "region_id": 76,
        "region_name": "Quartel do CFAP / Sulacap - Sede de Fundação do NuCOE",
        "relation_type": "presenca_estatal",
        "organization_id": 54,
        "organization_name": "Batalhão de Operações Policiais Especiais (BOPE / NuCOE)",
        "organization_acronym": "BOPE",
        "color_hex": "#1D4ED8",
        "evidence_strength": "documentada_primaria",
        "independent_root_count": 2,
        "is_contested": false,
        "is_anachronistic": true,
        "anachronism_note": "Malha de 2022/2024 aplicada como referência contemporânea — fronteira ilustrativa, não histórica para períodos anteriores.",
        "dataset_name": "Malha Vetorial de Bairros Oficiais do Município do Rio de Janeiro",
        "dataset_provider": "Instituto Pereira Passos (IPP) / PCRJ / Data.Rio",
        "notes": "Presença militar institucional oficial fundacional do NuCOE nas dependências do CFAP."
      }
    },
    {
      "type": "Feature",
      "id": "facility_1",
      "geometry": {
        "type": "Point",
        "coordinates": [
          -44.1925,
          -23.1856
        ]
      },
      "properties": {
        "feature_id": "facility_1",
        "layer": "facilities",
        "facility_id": 1,
        "name": "Instituto Penal Cândido Mendes (Colônia Penal de Dois Rios)",
        "facility_type": "presidio",
        "opened_at": "1903-01-01",
        "closed_at": "1994-04-03",
        "capacity": 1200,
        "is_operational": true,
        "notes": "Colônia correcional e presídio de segurança máxima da Ilha Grande. Berço da convivência entre presos políticos e comuns sob a LSN (1969-1979) e da gênese da Falange Vermelha. Desativado e implodido em abril de 1994.",
        "source_citation": "AMORIM, Carlos. Comando Vermelho: A história secreta do crime organizado. Rio de Janeiro: Editora Record, 1993."
      }
    },
    {
      "type": "Feature",
      "id": "facility_3",
      "geometry": {
        "type": "Point",
        "coordinates": [
          -43.193,
          -22.911
        ]
      },
      "properties": {
        "feature_id": "facility_3",
        "layer": "facilities",
        "facility_id": 3,
        "name": "Complexo Penitenciário da Rua Frei Caneca (Hélio Gomes / Milton Dias Moreira)",
        "facility_type": "complexo_penitenciario",
        "opened_at": "1928-01-01",
        "closed_at": "2006-03-25",
        "capacity": 2500,
        "is_operational": true,
        "notes": "Conjunto prisional histórico localizado na região central/Estácio. Cenário de rebeliões e transferências fundamentais na década de 1980. Implodido em 2006 para moradia popular.",
        "source_citation": "AMORIM, Carlos. Comando Vermelho: A história secreta do crime organizado. Rio de Janeiro: Editora Record, 1993."
      }
    },
    {
      "type": "Feature",
      "id": "facility_4",
      "geometry": {
        "type": "Point",
        "coordinates": [
          -43.402,
          -22.889
        ]
      },
      "properties": {
        "feature_id": "facility_4",
        "layer": "facilities",
        "facility_id": 4,
        "name": "Núcleo da Cia. de Operações Especiais — NuCOE / BOPE (Sede Fundacional)",
        "facility_type": "batalhao_pmerj",
        "opened_at": "1978-01-19",
        "closed_at": null,
        "capacity": null,
        "is_operational": true,
        "notes": "Sede fundacional do NuCOE nas instalações do Centro de Formação e Aperfeiçoamento de Praças (CFAP) em Jardim Sulacap, embrião do moderno BOPE.",
        "source_citation": "AMORIM, Carlos. Comando Vermelho: A história secreta do crime organizado. Rio de Janeiro: Editora Record, 1993."
      }
    },
    {
      "type": "Feature",
      "id": "event_80",
      "geometry": {
        "type": "Point",
        "coordinates": [
          -43.1824,
          -22.9035
        ]
      },
      "properties": {
        "feature_id": "event_80",
        "layer": "events",
        "event_id": 80,
        "title": "Publicação de 'A Máquina e a Revolta' por Alba Zaluar e Ruptura de Paradigma Sociológico",
        "event_type": "publicacao_academica",
        "date_display": "1985",
        "date_start": "1985-01-01",
        "confidence_level": "confirmado",
        "coordinate_source": "Instituto Pereira Passos (IPP) / Data.Rio - Centroide de Bairro",
        "buffer_meters": null,
        "source_count": 1,
        "primary_source": "ZALUAR, Alba. A máquina e a revolta: as organizações populares e o significado da pobreza. São Paulo: Brasiliense, 1985."
      }
    },
    {
      "type": "Feature",
      "id": "event_81",
      "geometry": {
        "type": "Point",
        "coordinates": [
          -44.1925,
          -23.1856
        ]
      },
      "properties": {
        "feature_id": "event_81",
        "layer": "events",
        "event_id": 81,
        "title": "Fuga de Helicóptero de José Carlos dos Reis Encina ('Escadinha') da Ilha Grande",
        "event_type": "fuga_carceraria_espetacular",
        "date_display": "31 de dezembro de 1985",
        "date_start": "1985-12-31",
        "confidence_level": "provavel",
        "coordinate_source": "Marco Histórico / INEPAC & IPHAN (Ruínas do IPMC em Dois Rios)",
        "buffer_meters": null,
        "source_count": 1,
        "primary_source": "AMORIM, Carlos. Comando Vermelho: A história secreta do crime organizado. Rio de Janeiro: Editora Record, 1993."
      }
    },
    {
      "type": "Feature",
      "id": "flow_1",
      "geometry": {
        "type": "LineString",
        "coordinates": [
          [
            -44.1925,
            -23.1856
          ],
          [
            -43.327,
            -22.863
          ]
        ]
      },
      "properties": {
        "feature_id": "flow_1",
        "layer": "flows",
        "flow_id": 1,
        "flow_type": "fuga",
        "date_start": "1985-12-31",
        "date_end": "1985-12-31",
        "evidence_strength": "documentada_primaria",
        "notes": "Fuga cinematográfica em helicóptero Bell 206 alugado pousando no campo de futebol do Instituto Penal Cândido Mendes na Ilha Grande, levando a liderança José Carlos dos Reis Encina (Escadinha) para o Morro do Juramento."
      }
    }
  ]
}