{
  "type": "FeatureCollection",
  "metadata": {
    "year": 1969,
    "month": null,
    "datasets_referenced": [],
    "total_features": 3,
    "territories_count": 0,
    "facilities_count": 2,
    "flows_count": 0,
    "events_count": 1,
    "anachronistic_features_count": 0,
    "epistemological_warning": null
  },
  "coverage": {
    "year": 1969,
    "total_known_regions": 22,
    "regions_with_coverage": 0,
    "evidence_density_index": 0.0,
    "coverage_status": "lacunar"
  },
  "features": [
    {
      "type": "Feature",
      "id": "facility_1",
      "geometry": {
        "type": "Point",
        "coordinates": [
          -44.1925,
          -23.1856
        ]
      },
      "properties": {
        "feature_id": "facility_1",
        "layer": "facilities",
        "facility_id": 1,
        "name": "Instituto Penal Cândido Mendes (Colônia Penal de Dois Rios)",
        "facility_type": "presidio",
        "opened_at": "1903-01-01",
        "closed_at": "1994-04-03",
        "capacity": 1200,
        "is_operational": true,
        "notes": "Colônia correcional e presídio de segurança máxima da Ilha Grande. Berço da convivência entre presos políticos e comuns sob a LSN (1969-1979) e da gênese da Falange Vermelha. Desativado e implodido em abril de 1994.",
        "source_citation": "AMORIM, Carlos. Comando Vermelho: A história secreta do crime organizado. Rio de Janeiro: Editora Record, 1993."
      }
    },
    {
      "type": "Feature",
      "id": "facility_3",
      "geometry": {
        "type": "Point",
        "coordinates": [
          -43.193,
          -22.911
        ]
      },
      "properties": {
        "feature_id": "facility_3",
        "layer": "facilities",
        "facility_id": 3,
        "name": "Complexo Penitenciário da Rua Frei Caneca (Hélio Gomes / Milton Dias Moreira)",
        "facility_type": "complexo_penitenciario",
        "opened_at": "1928-01-01",
        "closed_at": "2006-03-25",
        "capacity": 2500,
        "is_operational": true,
        "notes": "Conjunto prisional histórico localizado na região central/Estácio. Cenário de rebeliões e transferências fundamentais na década de 1980. Implodido em 2006 para moradia popular.",
        "source_citation": "AMORIM, Carlos. Comando Vermelho: A história secreta do crime organizado. Rio de Janeiro: Editora Record, 1993."
      }
    },
    {
      "type": "Feature",
      "id": "event_114",
      "geometry": {
        "type": "Point",
        "coordinates": [
          -43.1824,
          -22.9035
        ]
      },
      "properties": {
        "feature_id": "event_114",
        "layer": "events",
        "event_id": 114,
        "title": "Decreto-Lei nº 898 (LSN) e Confinamento de Assaltantes como Inimigos Nacionais",
        "event_type": "mudanca_institucional",
        "date_display": "29 de setembro de 1969",
        "date_start": "1969-09-29",
        "confidence_level": "confirmado",
        "coordinate_source": "Instituto Pereira Passos (IPP) / Data.Rio - Centroide de Bairro",
        "buffer_meters": null,
        "source_count": 2,
        "primary_source": "BRASIL. Decreto-Lei nº 898, de 29 de setembro de 1969. Define os crimes contra a segurança nacional, a ordem política e social. Diário Oficial da União, Brasília, 29 set. 1969."
      }
    }
  ]
}